GLOBALSTAR M023 [+]     
1 25621U 99004A   24062.27026296 -.00000093  00000+0  57893-4 0  9994
2 25621  52.0110  50.3733 0010336 161.2740 302.0765 12.62448108156126
GLOBALSTAR M040 [-]     
1 25622U 99004B   24062.30101319 -.00000086  00000+0  10001-3 0  9990
2 25622  51.9920  53.7426 0001003  81.6779  23.8468 12.61967834155676
GLOBALSTAR M036 [-]     
1 25623U 99004C   24062.23544181 -.00000059  00000+0  34935-3 0  9993
2 25623  51.9976  44.2372 0011420 226.4496 240.2537 11.86561424122950
GLOBALSTAR M038 [-]     
1 25624U 99004D   24062.12149937 -.00000069  00000+0  21284-3 0  9996
2 25624  52.0005 351.0277 0001906 134.1597 330.9925 12.32493852144160
GLOBALSTAR M022 [-]     
1 25649U 99012A   24062.52857990 -.00000059  00000+0  34016-3 0  9997
2 25649  52.0028 133.0608 0002017 315.9969 150.9974 12.02478219119639
GLOBALSTAR M041 [-]     
1 25650U 99012B   24062.11894979 -.00000053  00000+0  41261-3 0  9996
2 25650  52.0054   1.2324 0002565  93.0706 267.0424 11.96656075121769
GLOBALSTAR M046 [-]     
1 25651U 99012C   24062.43622782 -.00000005  00000+0  92573-3 0  9992
2 25651  52.0046 100.6648 0002131  41.8319  64.9642 12.09385875126587
GLOBALSTAR M037 [+]     
1 25652U 99012D   24062.62439494 -.00000084  00000+0  10974-3 0  9992
2 25652  51.9994 180.0956 0001803 194.5161 268.8432 12.62397051151711
